STARLINK-31316          
1 59090U 24041S   26068.82427263 -.00000822  00000+0 -20342-4 0  9998
2 59090  42.9979 263.1239 0001189 269.8888  90.1827 15.27573257114770
TEVEL2-5                
1 63214U 25052E   26068.96660006  .00021339  00000+0  71765-3 0  9991
2 63214  97.4013 325.3677 0004700  95.3936 264.7842 15.30817434 54919
